{"type": "FeatureCollection", "features": [ {"type": "Feature", "properties": {"norad_id": 33841, "name": "COSMOS 2251 DEB", "group": "cosmos-2251-debris", "lat": -67.8538030536476, "lon": -135.17981011928012, "alt_km": 765.8143783764726, "timestamp": "2025-12-17T09:00:17.540654+00:00", "meta": {"OBJECT_NAME": "COSMOS 2251 DEB", "OBJECT_ID": "1993-036CJ", "EPOCH": "2025-12-16T20:15:04.942944", "MEAN_MOTION": 14.37866902, "ECCENTRICITY": 0.00207144, "INCLINATION": 74.0378, "RA_OF_ASC_NODE": 270.4857, "ARG_OF_PERICENTER": 350.1212, "MEAN_ANOMALY": 66.1031, "EPHEMERIS_TYPE": 0, "CLASSIFICATION_TYPE": "U", "NORAD_CAT_ID": 33841, "ELEMENT_SET_NO": 999, "REV_AT_EPOCH": 88173, "BSTAR": 0.0002061044, "MEAN_MOTION_DOT": 5.97e-06, "MEAN_MOTION_DDOT": 0}, "tle": {"line1": "1 33841U 93036CJ  25350.84380721  .00000597  00000+0  20610-3 0  9990", "line2": "2 33841  74.0378 270.4857 0020714 350.1212  66.1031 14.37866902881731"}}, "geometry": {"type": "Point", "coordinates": [-135.17981011928012, -67.8538030536476]}}, {"type": "Feature", "properties": {"norad_id": 33842, "name": "COSMOS 2251 DEB", "group": "cosmos-2251-debris", "lat": -71.60006148555645, "lon": 90.44524196715662, "alt_km": 737.8457913323491, "timestamp": "2025-12-17T09:00:17.540664+00:00", "meta": {"OBJECT_NAME": "COSMOS 2251 DEB", "OBJECT_ID": "1993-036CK", "EPOCH": "2025-12-16T23:28:30.921888", "MEAN_MOTION": 14.42706064, "ECCENTRICITY": 0.00474131, "INCLINATION": 74.0323, "RA_OF_ASC_NODE": 211.7848, "ARG_OF_PERICENTER": 318.2699, "MEAN_ANOMALY": 41.4844, "EPHEMERIS_TYPE": 0, "CLASSIFICATION_TYPE": "U", "NORAD_CAT_ID": 33842, "ELEMENT_SET_NO": 999, "REV_AT_EPOCH": 88398, "BSTAR": 0.00024923199, "MEAN_MOTION_DOT": 8.13e-06, "MEAN_MOTION_DDOT": 0}, "tle": {"line1": "1 33842U 93036CK  25350.97813567  .00000813  00000+0  24923-3 0  9996", "line2": "2 33842  74.0323 211.7848 0047413 318.2699  41.4844 14.42706064883984"}}, "geometry": {"type": "Point", "coordinates": [90.44524196715662, -71.60006148555645]}}, {"type": "Feature", "properties": {"norad_id": 33844, "name": "COSMOS 2251 DEB", "group": "cosmos-2251-debris", "lat": 39.76245392844902, "lon": 58.066869658131914, "alt_km": 744.8508114990109, "timestamp": "2025-12-17T09:00:17.540674+00:00", "meta": {"OBJECT_NAME": "COSMOS 2251 DEB", "OBJECT_ID": "1993-036CM", "EPOCH": "2025-12-16T14:57:32.390784", "MEAN_MOTION": 14.33724223, "ECCENTRICITY": 0.00470481, "INCLINATION": 74.067, "RA_OF_ASC_NODE": 45.6888, "ARG_OF_PERICENTER": 66.3537, "MEAN_ANOMALY": 56.2719, "EPHEMERIS_TYPE": 0, "CLASSIFICATION_TYPE": "U", "NORAD_CAT_ID": 33844, "ELEMENT_SET_NO": 999, "REV_AT_EPOCH": 87781, "BSTAR": 0.00032397919, "MEAN_MOTION_DOT": 8.85e-06, "MEAN_MOTION_DDOT": 0}, "tle": {"line1": "1 33844U 93036CM  25350.62329156  .00000885  00000+0  32398-3 0  9990", "line2": "2 33844  74.0670  45.6888 0047048  66.3537  56.2719 14.33724223877812"}}, "geometry": {"type": "Point", "coordinates": [58.066869658131914, 39.76245392844902]}}, {"type": "Feature", "properties": {"norad_id": 33848, "name": "COSMOS 2251 DEB", "group": "cosmos-2251-debris", "lat": 32.30353343049331, "lon": -0.5514627147543671, "alt_km": 713.710741844844, "timestamp": "2025-12-17T09:00:17.540684+00:00", "meta": {"OBJECT_NAME": "COSMOS 2251 DEB", "OBJECT_ID": "1993-036CR", "EPOCH": "2025-12-16T22:57:42.082848", "MEAN_MOTION": 14.44090614, "ECCENTRICITY": 0.00413356, "INCLINATION": 74.0315, "RA_OF_ASC_NODE": 349.7965, "ARG_OF_PERICENTER": 44.3553, "MEAN_ANOMALY": 334.9754, "EPHEMERIS_TYPE": 0, "CLASSIFICATION_TYPE": "U", "NORAD_CAT_ID": 33848, "ELEMENT_SET_NO": 999, "REV_AT_EPOCH": 87892, "BSTAR": 0.00084381576, "MEAN_MOTION_DOT": 2.894e-05, "MEAN_MOTION_DDOT": 0}, "tle": {"line1": "1 33848U 93036CR  25350.95673707  .00002894  00000+0  84382-3 0  9996", "line2": "2 33848  74.0315 349.7965 0041335  44.3553 334.9754 14.44090614878923"}}, "geometry": {"type": "Point", "coordinates": [-0.5514627147543671, 32.30353343049331]}}, {"type": "Feature", "properties": {"norad_id": 33892, "name": "COSMOS 2251 DEB", "group": "cosmos-2251-debris", "lat": -26.726764874514853, "lon": 85.18616463755325, "alt_km": 890.5171870505119, "timestamp": "2025-12-17T09:00:17.540694+00:00", "meta": {"OBJECT_NAME": "COSMOS 2251 DEB", "OBJECT_ID": "1993-036CV", "EPOCH": "2025-12-16T16:51:36.955584", "MEAN_MOTION": 14.23353674, "ECCENTRICITY": 0.01126031, "INCLINATION": 73.8032, "RA_OF_ASC_NODE": 94.8285, "ARG_OF_PERICENTER": 125.2976, "MEAN_ANOMALY": 1.9169, "EPHEMERIS_TYPE": 0, "CLASSIFICATION_TYPE": "U", "NORAD_CAT_ID": 33892, "ELEMENT_SET_NO": 999, "REV_AT_EPOCH": 87011, "BSTAR": 0.00059337196, "MEAN_MOTION_DOT": 1.41e-05, "MEAN_MOTION_DDOT": 0}, "tle": {"line1": "1 33892U 93036CV  25350.70251106  .00001410  00000+0  59337-3 0  9998", "line2": "2 33892  73.8032  94.8285 0112603 125.2976   1.9169 14.23353674870112"}}, "geometry": {"type": "Point", "coordinates": [85.18616463755325, -26.726764874514853]}}, {"type": "Feature", "properties": {"norad_id": 33894, "name": "COSMOS 2251 DEB", "group": "cosmos-2251-debris", "lat": -10.368659977387763, "lon": -21.149060103463142, "alt_km": 1147.3550692034596, "timestamp": "2025-12-17T09:00:17.540704+00:00", "meta": {"OBJECT_NAME": "COSMOS 2251 DEB", "OBJECT_ID": "1993-036CX", "EPOCH": "2025-12-16T23:58:28.001280", "MEAN_MOTION": 13.21315162, "ECCENTRICITY": 0.05793568, "INCLINATION": 73.767, "RA_OF_ASC_NODE": 342.4883, "ARG_OF_PERICENTER": 261.3454, "MEAN_ANOMALY": 92.1624, "EPHEMERIS_TYPE": 0, "CLASSIFICATION_TYPE": "U", "NORAD_CAT_ID": 33894, "ELEMENT_SET_NO": 999, "REV_AT_EPOCH": 80764, "BSTAR": 0.00077215059, "MEAN_MOTION_DOT": 7.45e-06, "MEAN_MOTION_DDOT": 0}, "tle": {"line1": "1 33894U 93036CX  25350.99893520  .00000745  00000+0  77215-3 0  9998", "line2": "2 33894  73.7670 342.4883 0579356 261.3454  92.1624 13.21315162807645"}}, "geometry": {"type": "Point", "coordinates": [-21.149060103463142, -10.368659977387763]}}, {"type": "Feature", "properties": {"norad_id": 33896, "name": "COSMOS 2251 DEB", "group": "cosmos-2251-debris", "lat": -28.44973024904768, "lon": 139.18447717058515, "alt_km": 743.4661724579664, "timestamp": "2025-12-17T09:00:17.540714+00:00", "meta": {"OBJECT_NAME": "COSMOS 2251 DEB", "OBJECT_ID": "1993-036CZ", "EPOCH": "2025-12-16T21:52:37.034400", "MEAN_MOTION": 14.19049308, "ECCENTRICITY": 0.01265802, "INCLINATION": 73.7659, "RA_OF_ASC_NODE": 149.1089, "ARG_OF_PERICENTER": 324.1445, "MEAN_ANOMALY": 158.2915, "EPHEMERIS_TYPE": 0, "CLASSIFICATION_TYPE": "U", "NORAD_CAT_ID": 33896, "ELEMENT_SET_NO": 999, "REV_AT_EPOCH": 86799, "BSTAR": 0.00047098383, "MEAN_MOTION_DOT": 1.038e-05, "MEAN_MOTION_DDOT": 0}, "tle": {"line1": "1 33896U 93036CZ  25350.91153975  .00001038  00000+0  47098-3 0  9997", "line2": "2 33896  73.7659 149.1089 0126580 324.1445 158.2915 14.19049308867994"}}, "geometry": {"type": "Point", "coordinates": [139.18447717058515, -28.44973024904768]}}, {"type": "Feature", "properties": {"norad_id": 33899, "name": "COSMOS 2251 DEB", "group": "cosmos-2251-debris", "lat": -26.475831499857822, "lon": 68.68549433773511, "alt_km": 733.2617043858681, "timestamp": "2025-12-17T09:00:17.540724+00:00", "meta": {"OBJECT_NAME": "COSMOS 2251 DEB", "OBJECT_ID": "1993-036DC", "EPOCH": "2025-12-17T00:04:31.772064", "MEAN_MOTION": 14.61229018, "ECCENTRICITY": 0.00565099, "INCLINATION": 74.0542, "RA_OF_ASC_NODE": 77.5825, "ARG_OF_PERICENTER": 139.043, "MEAN_ANOMALY": 37.2245, "EPHEMERIS_TYPE": 0, "CLASSIFICATION_TYPE": "U", "NORAD_CAT_ID": 33899, "ELEMENT_SET_NO": 999, "REV_AT_EPOCH": 88901, "BSTAR": 0.00066914925, "MEAN_MOTION_DOT": 3.345e-05, "MEAN_MOTION_DDOT": 0}, "tle": {"line1": "1 33899U 93036DC  25351.00314551  .00003345  00000+0  66915-3 0  9992", "line2": "2 33899  74.0542  77.5825 0056509 139.0430  37.2245 14.61229018889018"}}, "geometry": {"type": "Point", "coordinates": [68.68549433773511, -26.475831499857822]}}, {"type": "Feature", "properties": {"norad_id": 33900, "name": "COSMOS 2251 DEB", "group": "cosmos-2251-debris", "lat": -37.84163789808932, "lon": -21.831609014080385, "alt_km": 737.5094337508499, "timestamp": "2025-12-17T09:00:17.540734+00:00", "meta": {"OBJECT_NAME": "COSMOS 2251 DEB", "OBJECT_ID": "1993-036DD", "EPOCH": "2025-12-16T19:10:50.033280", "MEAN_MOTION": 14.58362092, "ECCENTRICITY": 0.00466237, "INCLINATION": 74.0191, "RA_OF_ASC_NODE": 352.1285, "ARG_OF_PERICENTER": 143.0973, "MEAN_ANOMALY": 34.4402, "EPHEMERIS_TYPE": 0, "CLASSIFICATION_TYPE": "U", "NORAD_CAT_ID": 33900, "ELEMENT_SET_NO": 999, "REV_AT_EPOCH": 89095, "BSTAR": 0.0003050886, "MEAN_MOTION_DOT": 1.404e-05, "MEAN_MOTION_DDOT": 0}, "tle": {"line1": "1 33900U 93036DD  25350.79919020  .00001404  00000+0  30509-3 0  9996", "line2": "2 33900  74.0191 352.1285 0046623 143.0973  34.4402 14.58362092890951"}}, "geometry": {"type": "Point", "coordinates": [-21.831609014080385, -37.84163789808932]}}, {"type": "Feature", "properties": {"norad_id": 33901, "name": "COSMOS 2251 DEB", "group": "cosmos-2251-debris", "lat": -5.801566674236874, "lon": -138.82289470682807, "alt_km": 499.33948200146733, "timestamp": "2025-12-17T09:00:17.540744+00:00", "meta": {"OBJECT_NAME": "COSMOS 2251 DEB", "OBJECT_ID": "1993-036DE", "EPOCH": "2025-12-16T13:11:16.563264", "MEAN_MOTION": 15.16370583, "ECCENTRICITY": 0.00310166, "INCLINATION": 73.7745, "RA_OF_ASC_NODE": 41.2295, "ARG_OF_PERICENTER": 173.0876, "MEAN_ANOMALY": 187.0752, "EPHEMERIS_TYPE": 0, "CLASSIFICATION_TYPE": "U", "NORAD_CAT_ID": 33901, "ELEMENT_SET_NO": 999, "REV_AT_EPOCH": 89571, "BSTAR": 0.0022462584, "MEAN_MOTION_DOT": 0.00044376, "MEAN_MOTION_DDOT": 0}, "tle": {"line1": "1 33901U 93036DE  25350.54949726  .00044376  00000+0  22463-2 0  9990", "line2": "2 33901  73.7745  41.2295 0031016 173.0876 187.0752 15.16370583895716"}}, "geometry": {"type": "Point", "coordinates": [-138.82289470682807, -5.801566674236874]}}]}